{"fetched_at":"2026-03-30T06:02:59Z","count":15439,"tles":[{"name":"STARLINK-34936","line1":"1 65898U 25224S   26087.94520202  .00040095  00000+0  13583-2 0  9997","line2":"2 65898  53.1586 281.8166 0001146  86.7866 273.3266 15.30206339 27821","category":"Starlink"}]}