{
  "norad_id": 65898,
  "name": "STARLINK-34936",
  "history": [
    {
      "epoch": "2026-03-28T22:41:05.454528Z",
      "apogee_km": 475.98153435139284,
      "perigee_km": 474.4107503951609,
      "latitude_deg": 1.5416226049158402e-05,
      "longitude_deg": 115.1855147195587,
      "height_km": 476.05021420784936,
      "semi_major_axis_km": 6853.333142373276,
      "eccentricity": 0.0001146,
      "inclination_deg": 53.1586,
      "raan_deg": 281.8166,
      "arg_perigee_deg": 86.7866,
      "mean_anomaly_deg": 273.3266,
      "mean_motion_rev_day": 15.30206339
    }
  ]
}